{"type": "FeatureCollection", "features": [ {"type": "Feature", "properties": {"norad_id": 33841, "name": "COSMOS 2251 DEB", "group": "cosmos-2251-debris", "lat": -73.59470232295203, "lon": 161.2211373296887, "alt_km": 769.2904727689556, "timestamp": "2025-12-19T22:41:52.788714+00:00", "meta": {"OBJECT_NAME": "COSMOS 2251 DEB", "OBJECT_ID": "1993-036CJ", "EPOCH": "2025-12-19T05:28:29.368416", "MEAN_MOTION": 14.37869571, "ECCENTRICITY": 0.0020814, "INCLINATION": 74.0378, "RA_OF_ASC_NODE": 266.0959, "ARG_OF_PERICENTER": 345.3271, "MEAN_ANOMALY": 167.8966, "EPHEMERIS_TYPE": 0, "CLASSIFICATION_TYPE": "U", "NORAD_CAT_ID": 33841, "ELEMENT_SET_NO": 999, "REV_AT_EPOCH": 88207, "BSTAR": 0.00016495, "MEAN_MOTION_DOT": 4.72e-06, "MEAN_MOTION_DDOT": 0}, "tle": {"line1": "1 33841U 93036CJ  25353.22811769  .00000472  00000+0  16495-3 0  9994", "line2": "2 33841  74.0378 266.0959 0020814 345.3271 167.8966 14.37869571882076"}}, "geometry": {"type": "Point", "coordinates": [161.2211373296887, -73.59470232295203]}}, {"type": "Feature", "properties": {"norad_id": 33842, "name": "COSMOS 2251 DEB", "group": "cosmos-2251-debris", "lat": -67.32770770060779, "lon": 163.00818643044914, "alt_km": 725.9614940178362, "timestamp": "2025-12-19T22:41:52.788725+00:00", "meta": {"OBJECT_NAME": "COSMOS 2251 DEB", "OBJECT_ID": "1993-036CK", "EPOCH": "2025-12-19T08:03:29.764224", "MEAN_MOTION": 14.42709698, "ECCENTRICITY": 0.0047466, "INCLINATION": 74.032, "RA_OF_ASC_NODE": 207.4086, "ARG_OF_PERICENTER": 313.4212, "MEAN_ANOMALY": 46.2997, "EPHEMERIS_TYPE": 0, "CLASSIFICATION_TYPE": "U", "NORAD_CAT_ID": 33842, "ELEMENT_SET_NO": 999, "REV_AT_EPOCH": 88432, "BSTAR": 0.00020184, "MEAN_MOTION_DOT": 6.54e-06, "MEAN_MOTION_DDOT": 0}, "tle": {"line1": "1 33842U 93036CK  25353.33576116  .00000654  00000+0  20184-3 0  9993", "line2": "2 33842  74.0320 207.4086 0047466 313.4212  46.2997 14.42709698884320"}}, "geometry": {"type": "Point", "coordinates": [163.00818643044914, -67.32770770060779]}}, {"type": "Feature", "properties": {"norad_id": 33844, "name": "COSMOS 2251 DEB", "group": "cosmos-2251-debris", "lat": -15.662211521208562, "lon": 35.029401014694905, "alt_km": 775.0827412299495, "timestamp": "2025-12-19T22:41:52.788739+00:00", "meta": {"OBJECT_NAME": "COSMOS 2251 DEB", "OBJECT_ID": "1993-036CM", "EPOCH": "2025-12-19T11:37:42.800160", "MEAN_MOTION": 14.33728935, "ECCENTRICITY": 0.0047079, "INCLINATION": 74.0668, "RA_OF_ASC_NODE": 40.4651, "ARG_OF_PERICENTER": 60.2158, "MEAN_ANOMALY": 64.484, "EPHEMERIS_TYPE": 0, "CLASSIFICATION_TYPE": "U", "NORAD_CAT_ID": 33844, "ELEMENT_SET_NO": 999, "REV_AT_EPOCH": 87822, "BSTAR": 0.00025742, "MEAN_MOTION_DOT": 6.98e-06, "MEAN_MOTION_DDOT": 0}, "tle": {"line1": "1 33844U 93036CM  25353.48452315  .00000698  00000+0  25742-3 0  9998", "line2": "2 33844  74.0668  40.4651 0047079  60.2158  64.4840 14.33728935878222"}}, "geometry": {"type": "Point", "coordinates": [35.029401014694905, -15.662211521208562]}}, {"type": "Feature", "properties": {"norad_id": 33848, "name": "COSMOS 2251 DEB", "group": "cosmos-2251-debris", "lat": 66.41504711755763, "lon": 25.2208188181664, "alt_km": 713.7408112780586, "timestamp": "2025-12-19T22:41:52.788752+00:00", "meta": {"OBJECT_NAME": "COSMOS 2251 DEB", "OBJECT_ID": "1993-036CR", "EPOCH": "2025-12-19T09:45:29.312064", "MEAN_MOTION": 14.44103638, "ECCENTRICITY": 0.0041509, "INCLINATION": 74.0314, "RA_OF_ASC_NODE": 345.2377, "ARG_OF_PERICENTER": 39.0319, "MEAN_ANOMALY": 111.31, "EPHEMERIS_TYPE": 0, "CLASSIFICATION_TYPE": "U", "NORAD_CAT_ID": 33848, "ELEMENT_SET_NO": 999, "REV_AT_EPOCH": 87927, "BSTAR": 0.00076035, "MEAN_MOTION_DOT": 2.606e-05, "MEAN_MOTION_DDOT": 0}, "tle": {"line1": "1 33848U 93036CR  25353.40658926  .00002606  00000+0  76035-3 0  9992", "line2": "2 33848  74.0314 345.2377 0041509  39.0319 111.3100 14.44103638879276"}}, "geometry": {"type": "Point", "coordinates": [25.2208188181664, 66.41504711755763]}}, {"type": "Feature", "properties": {"norad_id": 33892, "name": "COSMOS 2251 DEB", "group": "cosmos-2251-debris", "lat": -0.5873663069499606, "lon": -90.91694258000024, "alt_km": 777.6567916210115, "timestamp": "2025-12-19T22:41:52.788763+00:00", "meta": {"OBJECT_NAME": "COSMOS 2251 DEB", "OBJECT_ID": "1993-036CV", "EPOCH": "2025-12-19T13:30:25.631424", "MEAN_MOTION": 14.23360104, "ECCENTRICITY": 0.011247, "INCLINATION": 73.8027, "RA_OF_ASC_NODE": 89.6107, "ARG_OF_PERICENTER": 119.5256, "MEAN_ANOMALY": 258.3174, "EPHEMERIS_TYPE": 0, "CLASSIFICATION_TYPE": "U", "NORAD_CAT_ID": 33892, "ELEMENT_SET_NO": 999, "REV_AT_EPOCH": 87052, "BSTAR": 0.00046603, "MEAN_MOTION_DOT": 1.102e-05, "MEAN_MOTION_DDOT": 0}, "tle": {"line1": "1 33892U 93036CV  25353.56279666  .00001102  00000+0  46603-3 0  9996", "line2": "2 33892  73.8027  89.6107 0112470 119.5256 258.3174 14.23360104870525"}}, "geometry": {"type": "Point", "coordinates": [-90.91694258000024, -0.5873663069499606]}}, {"type": "Feature", "properties": {"norad_id": 33894, "name": "COSMOS 2251 DEB", "group": "cosmos-2251-debris", "lat": -26.76429117011815, "lon": -30.520054134732643, "alt_km": 1053.5393287933593, "timestamp": "2025-12-19T22:41:52.788774+00:00", "meta": {"OBJECT_NAME": "COSMOS 2251 DEB", "OBJECT_ID": "1993-036CX", "EPOCH": "2025-12-19T01:02:02.974272", "MEAN_MOTION": 13.21318804, "ECCENTRICITY": 0.05792005, "INCLINATION": 73.767, "RA_OF_ASC_NODE": 339.3249, "ARG_OF_PERICENTER": 257.9221, "MEAN_ANOMALY": 95.6429, "EPHEMERIS_TYPE": 0, "CLASSIFICATION_TYPE": "U", "NORAD_CAT_ID": 33894, "ELEMENT_SET_NO": 999, "REV_AT_EPOCH": 80791, "BSTAR": 0.001105682, "MEAN_MOTION_DOT": 1.077e-05, "MEAN_MOTION_DDOT": 0}, "tle": {"line1": "1 33894U 93036CX  25353.04308998  .00001077  00000+0  11057-2 0  9997", "line2": "2 33894  73.7670 339.3249 0579200 257.9221  95.6429 13.21318804807914"}}, "geometry": {"type": "Point", "coordinates": [-30.520054134732643, -26.76429117011815]}}, {"type": "Feature", "properties": {"norad_id": 33896, "name": "COSMOS 2251 DEB", "group": "cosmos-2251-debris", "lat": 40.84715136756126, "lon": -50.98949274987832, "alt_km": 916.3058392892426, "timestamp": "2025-12-19T22:41:52.788784+00:00", "meta": {"OBJECT_NAME": "COSMOS 2251 DEB", "OBJECT_ID": "1993-036CZ", "EPOCH": "2025-12-19T17:05:04.005024", "MEAN_MOTION": 14.19053662, "ECCENTRICITY": 0.0126798, "INCLINATION": 73.7663, "RA_OF_ASC_NODE": 144.0253, "ARG_OF_PERICENTER": 318.6085, "MEAN_ANOMALY": 63.9177, "EPHEMERIS_TYPE": 0, "CLASSIFICATION_TYPE": "U", "NORAD_CAT_ID": 33896, "ELEMENT_SET_NO": 999, "REV_AT_EPOCH": 86839, "BSTAR": 0.00030691, "MEAN_MOTION_DOT": 6.67e-06, "MEAN_MOTION_DDOT": 0}, "tle": {"line1": "1 33896U 93036CZ  25353.71185191  .00000667  00000+0  30691-3 0  9991", "line2": "2 33896  73.7663 144.0253 0126798 318.6085  63.9177 14.19053662868390"}}, "geometry": {"type": "Point", "coordinates": [-50.98949274987832, 40.84715136756126]}}, {"type": "Feature", "properties": {"norad_id": 33899, "name": "COSMOS 2251 DEB", "group": "cosmos-2251-debris", "lat": 9.759194905797171, "lon": -110.85568281327015, "alt_km": 658.6371394400758, "timestamp": "2025-12-19T22:41:52.788795+00:00", "meta": {"OBJECT_NAME": "COSMOS 2251 DEB", "OBJECT_ID": "1993-036DC", "EPOCH": "2025-12-19T16:02:18.475296", "MEAN_MOTION": 14.61246062, "ECCENTRICITY": 0.0056297, "INCLINATION": 74.0545, "RA_OF_ASC_NODE": 72.4927, "ARG_OF_PERICENTER": 133.1792, "MEAN_ANOMALY": 17.084, "EPHEMERIS_TYPE": 0, "CLASSIFICATION_TYPE": "U", "NORAD_CAT_ID": 33899, "ELEMENT_SET_NO": 999, "REV_AT_EPOCH": 88940, "BSTAR": 0.00054952, "MEAN_MOTION_DOT": 2.742e-05, "MEAN_MOTION_DDOT": 0}, "tle": {"line1": "1 33899U 93036DC  25353.66826939  .00002742  00000+0  54952-3 0  9992", "line2": "2 33899  74.0545  72.4927 0056297 133.1792  17.0840 14.61246062889406"}}, "geometry": {"type": "Point", "coordinates": [-110.85568281327015, 9.759194905797171]}}, {"type": "Feature", "properties": {"norad_id": 33900, "name": "COSMOS 2251 DEB", "group": "cosmos-2251-debris", "lat": 46.87912371166432, "lon": 148.31261095696476, "alt_km": 661.1930007038936, "timestamp": "2025-12-19T22:41:52.788805+00:00", "meta": {"OBJECT_NAME": "COSMOS 2251 DEB", "OBJECT_ID": "1993-036DD", "EPOCH": "2025-12-19T17:24:23.265792", "MEAN_MOTION": 14.58369459, "ECCENTRICITY": 0.0046524, "INCLINATION": 74.0182, "RA_OF_ASC_NODE": 346.5529, "ARG_OF_PERICENTER": 136.6392, "MEAN_ANOMALY": 276.8632, "EPHEMERIS_TYPE": 0, "CLASSIFICATION_TYPE": "U", "NORAD_CAT_ID": 33900, "ELEMENT_SET_NO": 999, "REV_AT_EPOCH": 89138, "BSTAR": 0.00026319, "MEAN_MOTION_DOT": 1.207e-05, "MEAN_MOTION_DDOT": 0}, "tle": {"line1": "1 33900U 93036DD  25353.72526928  .00001207  00000+0  26319-3 0  9998", "line2": "2 33900  74.0182 346.5529 0046524 136.6392 276.8632 14.58369459891381"}}, "geometry": {"type": "Point", "coordinates": [148.31261095696476, 46.87912371166432]}}, {"type": "Feature", "properties": {"norad_id": 33901, "name": "COSMOS 2251 DEB", "group": "cosmos-2251-debris", "lat": 5.5218259566843635, "lon": -147.57669407873522, "alt_km": 497.09748228394983, "timestamp": "2025-12-19T22:41:52.788815+00:00", "meta": {"OBJECT_NAME": "COSMOS 2251 DEB", "OBJECT_ID": "1993-036DE", "EPOCH": "2025-12-19T02:56:08.950848", "MEAN_MOTION": 15.16598478, "ECCENTRICITY": 0.00304962, "INCLINATION": 73.7756, "RA_OF_ASC_NODE": 35.78, "ARG_OF_PERICENTER": 167.4201, "MEAN_ANOMALY": 192.7762, "EPHEMERIS_TYPE": 0, "CLASSIFICATION_TYPE": "U", "NORAD_CAT_ID": 33901, "ELEMENT_SET_NO": 999, "REV_AT_EPOCH": 89610, "BSTAR": 0.0019812592, "MEAN_MOTION_DOT": 0.00039348, "MEAN_MOTION_DDOT": 0}, "tle": {"line1": "1 33901U 93036DE  25353.12232582  .00039348  00000+0  19813-2 0  9990", "line2": "2 33901  73.7756  35.7800 0030496 167.4201 192.7762 15.16598478896101"}}, "geometry": {"type": "Point", "coordinates": [-147.57669407873522, 5.5218259566843635]}}]}